0 NSTAR B
1 23781U 96007A   13282.26076617 -.00000236  00000-0  10000-3 0  4502
2 23781 006.0045 059.4253 0006753 148.8928 211.2101 00.99261487 64539
0 NSTAR B
1 23781U 96007A   13287.29782526 -.00000170  00000-0  10000-3 0  4522
2 23781 006.0144 059.3711 0006798 149.7075 210.4053 00.99259594 64587
0 NSTAR B
1 23781U 96007A   13290.31998285 -.00000110  00000-0  10000-3 0  4535
2 23781 006.0206 059.3408 0006841 150.0945 209.9804 00.99258682 64617
0 NSTAR B
1 23781U 96007A   13292.33472734 -.00000067  00000-0  10000-3 0  4547
2 23781 006.0246 059.3203 0006879 150.6106 209.4243 00.99258234 64637
0 NSTAR B
1 23781U 96007A   13294.34950611 -.00000026  00000-0  10000-3 0  4551
2 23781 006.0288 059.2994 0006996 151.1384 208.8702 00.99257978 64652
